NORAD_CAT_ID,OBJECT_NAME,OBJECT_TYPE,EPOCH,MEAN_MOTION,ECCENTRICITY,INCLINATION,RA_OF_ASC_NODE,ARG_OF_PERICENTER,MEAN_ANOMALY,BSTAR,MEAN_MOTION_DOT,MEAN_MOTION_DDOT,TLE_LINE0,TLE_LINE1,TLE_LINE2,SEMIMAJOR_AXIS,PERIOD,APOGEE,PERIGEE,DECAYED
56483.0,STARLINK-5868,PAYLOAD,2024-07-26 14:48:39,14.98333771,0.0002943,69.9999,174.702,272.04,88.0422,7.1385e-05,7.59e-06,0.0,0 STARLINK-5868,1 56483U 23064AM  24208.61712052  .00000759  00000-0  71385-4 0  9990,2 56483  69.9999 174.7020 0002943 272.0400  88.0422 14.98333771 67208,6950.181,96.107,574.092,570.001,0.0
56483.0,STARLINK-5868,PAYLOAD,2024-07-27 05:13:49,14.98357186,0.0003364,69.9979,173.1856,276.5642,83.5134,0.0001977,2.268e-05,0.0,0 STARLINK-5868,1 56483U 23064AM  24209.21793654  .00002268  00000-0  19770-3 0  9990,2 56483  69.9979 173.1856 0003364 276.5642  83.5134 14.98357186 67656,6950.109,96.105,574.312,569.636,0.0
56483.0,STARLINK-5868,PAYLOAD,2024-07-27 06:49:59,14.98328321,0.0002161,69.9998,173.0194,269.1901,90.9011,-7.4138e-05,-9.77e-06,0.0,0 STARLINK-5868,1 56483U 23064AM  24209.28472124 -.00000977  00000-0 -74138-4 0  9990,2 56483  69.9998 173.0194 0002161 269.1901  90.9011 14.98328321 67667,6950.198,96.107,573.565,570.561,0.0
56483.0,STARLINK-5868,PAYLOAD,2024-07-27 22:51:21,14.98318847,0.0002908,69.9998,171.3374,262.0199,98.063,-0.00012868,-1.628e-05,0.0,0 STARLINK-5868,1 56483U 23064AM  24209.95232864 -.00001628  00000-0 -12868-3 0  9994,2 56483  69.9998 171.3374 0002908 262.0199  98.0630 14.98318847 67408,6950.227,96.108,574.114,570.071,0.0
56483.0,STARLINK-5868,PAYLOAD,2024-07-28 05:15:53,14.98322385,0.0003154,69.9989,170.6615,269.8078,90.272,-0.00014472,-1.819e-05,0.0,0 STARLINK-5868,1 56483U 23064AM  24210.21936837 -.00001819  00000-0 -14472-3 0  9991,2 56483  69.9989 170.6615 0003154 269.8078  90.2720 14.98322385 67803,6950.216,96.107,574.274,569.889,0.0
56483.0,STARLINK-5868,PAYLOAD,2024-07-28 21:17:13,14.98334503,0.0003139,69.9997,168.9795,271.611,88.469,-0.00011868,-1.509e-05,0.0,0 STARLINK-5868,1 56483U 23064AM  24210.88696153 -.00001509  00000-0 -11868-3 0  9990,2 56483  69.9997 168.9795 0003139 271.6110  88.4690 14.98334503 67903,6950.179,96.107,574.226,569.862,0.0
56483.0,STARLINK-5868,PAYLOAD,2024-07-28 22:53:21,14.98335086,0.0003131,69.9998,168.8113,271.4315,88.6486,-0.00010758,-1.377e-05,0.0,0 STARLINK-5868,1 56483U 23064AM  24210.95372081 -.00001377  00000-0 -10758-3 0  9999,2 56483  69.9998 168.8113 0003131 271.4315  88.6486 14.98335086 67557,6950.177,96.107,574.218,569.866,0.0
56483.0,STARLINK-5868,PAYLOAD,2024-07-29 05:17:53,14.9835253,0.0002939,69.9998,168.1378,271.052,89.0303,-0.00026672,-3.276e-05,0.0,0 STARLINK-5868,1 56483U 23064AM  24211.22075415 -.00003276  00000-0 -26672-3 0  9993,2 56483  69.9998 168.1378 0002939 271.0520  89.0303 14.98352530 67952,6950.123,96.106,574.031,569.946,0.0
56483.0,STARLINK-5868,PAYLOAD,2024-07-29 06:54:00,14.9837478,0.0002994,70.0,167.9698,268.4,91.6816,-0.00061804,-7.468e-05,0.0,0 STARLINK-5868,1 56483U 23064AM  24211.28750886 -.00007468  00000-0 -61804-3 0  9994,2 56483  70.0000 167.9698 0002994 268.4000  91.6816 14.98374780 67965,6950.054,96.104,574.0,569.839,0.0
56483.0,STARLINK-5868,PAYLOAD,2024-07-29 21:19:14,14.98321558,0.0002875,69.9998,166.4542,269.581,90.502,0.00014655,1.656e-05,0.0,0 STARLINK-5868,1 56483U 23064AM  24211.88836423  .00001656  00000-0  14655-3 0  9995,2 56483  69.9998 166.4542 0002875 269.5810  90.5020 14.98321558 68050,6950.219,96.108,574.082,570.086,0.0
56483.0,STARLINK-5868,PAYLOAD,2024-07-29 22:55:22,14.98320549,0.0002897,69.9997,166.286,269.9193,90.1634,0.00013273,1.491e-05,0.0,0 STARLINK-5868,1 56483U 23064AM  24211.95512566  .00001491  00000-0  13273-3 0  9994,2 56483  69.9997 166.2860 0002897 269.9193  90.1634 14.98320549 67709,6950.222,96.108,574.101,570.074,0.0
56483.0,STARLINK-5868,PAYLOAD,2024-07-30 06:56:02,14.98326684,0.0002904,69.9999,165.4454,271.2815,88.8011,0.0001921,2.2e-05,0.0,0 STARLINK-5868,1 56483U 23064AM  24212.28892264  .00002200  00000-0  19210-3 0  9993,2 56483  69.9999 165.4454 0002904 271.2815  88.8011 14.98326684 67751,6950.203,96.107,574.086,570.05,0.0
56483.0,STARLINK-5868,PAYLOAD,2024-07-30 22:57:23,14.98339436,0.0002897,69.9999,163.7621,271.6472,88.4355,9.8892e-05,1.087e-05,0.0,0 STARLINK-5868,1 56483U 23064AM  24212.95651671  .00001087  00000-0  98892-4 0  9998,2 56483  69.9999 163.7621 0002897 271.6472  88.4355 14.98339436 67859,6950.164,96.106,574.042,570.015,0.0
56483.0,STARLINK-5868,PAYLOAD,2024-07-31 05:21:54,14.98345621,0.0002854,69.9999,163.0887,271.5056,88.5776,0.00016515,1.879e-05,0.0,0 STARLINK-5868,1 56483U 23064AM  24213.22354987  .00001879  00000-0  16515-3 0  9999,2 56483  69.9999 163.0887 0002854 271.5056  88.5776 14.98345621 68252,6950.145,96.106,573.993,570.026,0.0
56483.0,STARLINK-5868,PAYLOAD,2024-07-31 13:22:32,14.98378231,0.0002671,70.0003,162.247,272.7275,87.3579,0.00053816,6.342e-05,0.0,0 STARLINK-5868,1 56483U 23064AM  24213.55731610  .00006342  00000-0  53816-3 0  9992,2 56483  70.0003 162.2470 0002671 272.7275  87.3579 14.98378231 67949,6950.044,96.104,573.765,570.052,0.0
56483.0,STARLINK-5868,PAYLOAD,2024-07-31 19:47:04,14.98373627,0.0001748,70.0,161.5737,274.4955,85.6004,0.00052168,6.144e-05,0.0,0 STARLINK-5868,1 56483U 23064AM  24213.82435662  .00006144  00000-0  52168-3 0  9999,2 56483  70.0000 161.5737 0001748 274.4955  85.6004 14.98373627 68345,6950.058,96.104,573.138,570.708,0.0
56483.0,STARLINK-5868,PAYLOAD,2024-07-31 22:59:24,14.98315418,0.0002605,70.0002,161.2372,257.89,102.1967,-0.00013838,-1.743e-05,0.0,0 STARLINK-5868,1 56483U 23064AM  24213.95792455 -.00001743  00000-0 -13838-3 0  9992,2 56483  70.0002 161.2372 0002605 257.8900 102.1967 14.98315418 68007,6950.238,96.108,573.914,570.292,0.0
56483.0,STARLINK-5868,PAYLOAD,2024-08-01 05:23:56,14.98319502,0.0002708,70.0002,160.5642,267.5984,92.4864,-8.1746e-05,-1.068e-05,0.0,0 STARLINK-5868,1 56483U 23064AM  24214.22496242 -.00001068  00000-0 -81746-4 0  9992,2 56483  70.0002 160.5642 0002708 267.5984  92.4864 14.98319502 68402,6950.225,96.108,573.972,570.208,0.0
56483.0,STARLINK-5868,PAYLOAD,2024-08-01 13:24:36,14.9832742,0.0002864,70.0011,159.7226,270.849,89.2341,-0.00020962,-2.593e-05,0.0,0 STARLINK-5868,1 56483U 23064AM  24214.55875137 -.00002593  00000-0 -20962-3 0  9998,2 56483  70.0011 159.7226 0002864 270.8490  89.2341 14.98327420 68099,6950.201,96.107,574.056,570.075,0.0
56483.0,STARLINK-5868,PAYLOAD,2024-08-01 21:25:16,14.98330936,0.0003025,70.0008,158.8808,269.6435,90.4378,-0.00023229,-2.864e-05,0.0,0 STARLINK-5868,1 56483U 23064AM  24214.89254928 -.00002864  00000-0 -23229-3 0  9994,2 56483  70.0008 158.8808 0003025 269.6435  90.4378 14.98330936 68502,6950.19,96.107,574.157,569.953,0.0
56483.0,STARLINK-5868,PAYLOAD,2024-08-01 23:01:24,14.98331916,0.0003027,70.0008,158.7124,270.0619,90.0193,-0.00019432,-2.411e-05,0.0,0 STARLINK-5868,1 56483U 23064AM  24214.95930884 -.00002411  00000-0 -19432-3 0  9992,2 56483  70.0008 158.7124 0003027 270.0619  90.0193 14.98331916 68155,6950.187,96.107,574.156,569.948,0.0
56483.0,STARLINK-5868,PAYLOAD,2024-08-02 07:02:04,14.98336268,0.0002847,70.0014,157.8713,268.2993,91.784,0.00022252,2.563e-05,0.0,0 STARLINK-5868,1 56483U 23064AM  24215.29310611  .00002563  00000-0  22252-3 0  9990,2 56483  70.0014 157.8713 0002847 268.2993  91.7840 14.98336268 68566,6950.174,96.107,574.017,570.06,0.0
56483.0,STARLINK-5868,PAYLOAD,2024-08-02 13:26:37,14.98321653,0.0002717,70.0017,157.1992,269.8963,90.1885,0.00039256,4.593e-05,0.0,0 STARLINK-5868,1 56483U 23064AM  24215.56015383  .00004593  00000-0  39256-3 0  9995,2 56483  70.0017 157.1992 0002717 269.8963  90.1885 14.98321653 68240,6950.219,96.108,573.972,570.195,0.0
56483.0,STARLINK-5868,PAYLOAD,2024-08-02 21:27:17,14.98321898,0.0002555,70.003,156.3531,276.9019,83.1849,0.00027232,3.157e-05,0.0,0 STARLINK-5868,1 56483U 23064AM  24215.89395723  .00003157  00000-0  27232-3 0  9996,2 56483  70.0030 156.3531 0002555 276.9019  83.1849 14.98321898 68654,6950.218,96.108,573.859,570.307,0.0
56483.0,STARLINK-5868,PAYLOAD,2024-08-03 13:28:38,14.98323491,0.0002827,70.0013,154.674,271.505,88.5785,0.00028802,3.345e-05,0.0,0 STARLINK-5868,1 56483U 23064AM  24216.56156222  .00003345  00000-0  28802-3 0  9993,2 56483  70.0013 154.6740 0002827 271.5050  88.5785 14.98323491 68396,6950.213,96.107,574.043,570.113,0.0
56483.0,STARLINK-5868,PAYLOAD,2024-08-03 21:29:19,14.98332068,0.0002828,70.0018,153.8331,272.5514,87.5321,0.00039104,4.576e-05,0.0,0 STARLINK-5868,1 56483U 23064AM  24216.89536011  .00004576  00000-0  39104-3 0  9991,2 56483  70.0018 153.8331 0002828 272.5514  87.5321 14.98332068 68806,6950.186,96.107,574.017,570.086,0.0
56483.0,STARLINK-5868,PAYLOAD,2024-08-04 13:30:39,14.98340158,0.0002885,70.0021,152.1467,269.008,91.0748,0.00057336,6.757e-05,0.0,0 STARLINK-5868,1 56483U 23064AM  24217.56295810  .00006757  00000-0  57336-3 0  9995,2 56483  70.0021 152.1467 0002885 269.0080  91.0748 14.98340158 68547,6950.161,96.106,574.032,570.021,0.0
56483.0,STARLINK-5868,PAYLOAD,2024-08-04 21:31:19,14.98343092,0.0002888,70.0019,151.3055,269.1032,90.9796,0.00058448,6.89e-05,0.0,0 STARLINK-5868,1 56483U 23064AM  24217.89675646  .00006890  00000-0  58448-3 0  9993,2 56483  70.0019 151.3055 0002888 269.1032  90.9796 14.98343092 68955,6950.152,96.106,574.025,570.01,0.0
56483.0,STARLINK-5868,PAYLOAD,2024-08-04 23:07:27,14.98343155,0.0002885,70.0018,151.1373,269.2289,90.8539,0.00053322,6.277e-05,0.0,0 STARLINK-5868,1 56483U 23064AM  24217.96351585  .00006277  00000-0  53322-3 0  9999,2 56483  70.0018 151.1373 0002885 269.2289  90.8539 14.98343155 68603,6950.152,96.106,574.022,570.012,0.0
56483.0,STARLINK-5868,PAYLOAD,2024-08-05 21:33:21,14.98317939,0.0002934,70.0019,148.7807,274.7694,85.313,-0.00034013,-4.148e-05,0.0,0 STARLINK-5868,1 56483U 23064AM  24218.89816338 -.00004148  00000-0 -34013-3 0  9997,2 56483  70.0019 148.7807 0002934 274.7694  85.3130 14.98317939 69107,6950.23,96.108,574.134,570.056,0.0
